city,street,housenumber,type,service_type,service_name,address,lat,lon
Маріуполь,проспект Победы,98,commercial,unknown,,"Маріуполь, проспект Победы, 98",47.1059777,37.6668117
Маріуполь,улица Олимпийская,153,commercial,unknown,,"Маріуполь, улица Олимпийская, 153",47.1200104,37.6799074
Маріуполь,проспект Победы,109,commercial,unknown,,"Маріуполь, проспект Победы, 109",47.1053385,37.6644933
Маріуполь,проспект Строителей,92,commercial,unknown,,"Маріуполь, проспект Строителей, 92",47.09728399999999,37.5224929
Маріуполь,проспект Металлургов,121А,commercial,unknown,,"Маріуполь, проспект Металлургов, 121А",47.11025009999999,37.5560939
Маріуполь,"проспект Металлургов, 194, пом. 2",,commercial,unknown,,"Маріуполь, проспект Металлургов, 194, пом. 2",47.13351900000001,37.5660983
Маріуполь,проспект Строителей,85А,commercial,unknown,,"Маріуполь, проспект Строителей, 85А",47.0899315,37.5237343
Маріуполь,проспект Победы,100,commercial,unknown,,"Маріуполь, проспект Победы, 100",47.10586929999999,37.6671598
Маріуполь,проспект Победы,111,commercial,unknown,,"Маріуполь, проспект Победы, 111",47.105284,37.665245
Маріуполь,проспект Победы,107,commercial,unknown,,"Маріуполь, проспект Победы, 107",47.1054943,37.6625701
Маріуполь,улица Сычева,33,commercial,unknown,,"Маріуполь, улица Сычева, 33",47.097133,37.543367
Маріуполь,улица 9 Авиадивизии,16,commercial,unknown,,"Маріуполь, улица 9 Авиадивизии, 16",47.1212402,37.5192454
Маріуполь,улица 9 Авиадивизии,18,commercial,unknown,,"Маріуполь, улица 9 Авиадивизии, 18",47.1216509,37.5192837
Маріуполь,улица 130 Таганрогской дивизии,5А,commercial,unknown,,"Маріуполь, улица 130 Таганрогской дивизии, 5А",47.1064369,37.6688932
Маріуполь,25 квартал,3,commercial,unknown,,"Маріуполь, 25 квартал, 3",47.097133,37.543367
Маріуполь,бульвар 50 лет Октября,11,commercial,unknown,,"Маріуполь, бульвар 50 лет Октября, 11",47.1034474,37.6372948
Маріуполь,бульвар 50 лет Октября,21/43,commercial,unknown,,"Маріуполь, бульвар 50 лет Октября, 21/43",47.1061421,37.6376316
Маріуполь,бульвар 50 лет Октября,21/43,commercial,unknown,,"Маріуполь, бульвар 50 лет Октября, 21/43",47.1061421,37.6376316
Маріуполь,бульвар 50 лет Октября,21/43,commercial,unknown,,"Маріуполь, бульвар 50 лет Октября, 21/43",47.1061421,37.6376316
Маріуполь,бульвар 50 лет Октября,21/43,commercial,unknown,,"Маріуполь, бульвар 50 лет Октября, 21/43",47.1061421,37.6376316
Маріуполь,бульвар 50 лет Октября,25,commercial,unknown,,"Маріуполь, бульвар 50 лет Октября, 25",47.0998183,37.6363894
Маріуполь,улица 50 лет СССР,20,commercial,unknown,,"Маріуполь, улица 50 лет СССР, 20",47.097133,37.543367
Маріуполь,улица 50 лет СССР,43,commercial,unknown,,"Маріуполь, улица 50 лет СССР, 43",47.097133,37.543367
Маріуполь,улица 50 лет СССР,51,commercial,unknown,,"Маріуполь, улица 50 лет СССР, 51",47.097133,37.543367
Маріуполь,улица 50 лет СССР,60,commercial,unknown,,"Маріуполь, улица 50 лет СССР, 60",47.097133,37.543367
Маріуполь,улица 50 лет СССР,61,commercial,unknown,,"Маріуполь, улица 50 лет СССР, 61",47.097133,37.543367
Маріуполь,улица 50 лет СССР,61,commercial,unknown,,"Маріуполь, улица 50 лет СССР, 61",47.097133,37.543367
Маріуполь,улица 50 лет СССР,61А,commercial,unknown,,"Маріуполь, улица 50 лет СССР, 61А",47.097133,37.543367
Маріуполь,улица 50 лет СССР,75,commercial,unknown,,"Маріуполь, улица 50 лет СССР, 75",47.097133,37.543367
Маріуполь,улица 50 лет СССР,77,commercial,unknown,,"Маріуполь, улица 50 лет СССР, 77",47.097133,37.543367
Маріуполь,улица 60 лет СССР,11,commercial,unknown,,"Маріуполь, улица 60 лет СССР, 11",47.1201863,37.5135469
Маріуполь,улица 60 лет СССР,12,commercial,unknown,,"Маріуполь, улица 60 лет СССР, 12",47.1213245,37.5125248
Маріуполь,улица 9 Мая,5,commercial,unknown,,"Маріуполь, улица 9 Мая, 5",47.1204196,37.6775721
Маріуполь,улица Азовстальская,30,commercial,unknown,,"Маріуполь, улица Азовстальская, 30",47.1024119,37.6374282
Маріуполь,улица Азовстальская,49/61,commercial,unknown,,"Маріуполь, улица Азовстальская, 49/61",47.101235,37.6418643
Маріуполь,улица Азовстальская,57,commercial,unknown,,"Маріуполь, улица Азовстальская, 57",47.1010335,37.6451845
Маріуполь,улица Азовстальская,60,commercial,unknown,,"Маріуполь, улица Азовстальская, 60",47.1021006,37.6447999
Маріуполь,улица Азовстальская,124,commercial,unknown,,"Маріуполь, улица Азовстальская, 124",47.1012716,37.6566007
Маріуполь,улица Апатова,123,commercial,unknown,,"Маріуполь, улица Апатова, 123",47.093965,37.5367801
Маріуполь,улица Артема,31,commercial,unknown,,"Маріуполь, улица Артема, 31",47.097133,37.543367
Маріуполь,улица Артема,35,commercial,unknown,,"Маріуполь, улица Артема, 35",47.097133,37.543367
Маріуполь,улица Артема,35,commercial,unknown,,"Маріуполь, улица Артема, 35",47.097133,37.543367
Маріуполь,улица Артема,37,commercial,unknown,,"Маріуполь, улица Артема, 37",47.097133,37.543367
Маріуполь,улица Артема,37,commercial,unknown,,"Маріуполь, улица Артема, 37",47.097133,37.543367
Маріуполь,улица Артема,44,commercial,unknown,,"Маріуполь, улица Артема, 44",47.097133,37.543367
Маріуполь,улица Артема,48,commercial,unknown,,"Маріуполь, улица Артема, 48",47.097133,37.543367
Маріуполь,улица Артема,49,commercial,unknown,,"Маріуполь, улица Артема, 49",47.097133,37.543367
Маріуполь,улица Артема,58,commercial,unknown,,"Маріуполь, улица Артема, 58",47.097133,37.543367
Маріуполь,улица Артема,115,commercial,unknown,,"Маріуполь, улица Артема, 115",47.1090858,37.5634368
Маріуполь,улица Бахмутская,30,commercial,unknown,,"Маріуполь, улица Бахмутская, 30",47.1162305,37.5527695
Маріуполь,улица Бахчиванджи,5,commercial,unknown,,"Маріуполь, улица Бахчиванджи, 5",47.09146639999999,37.5286224
Маріуполь,бульвар Богдана Хмельницкого,39,commercial,unknown,,"Маріуполь, бульвар Богдана Хмельницкого, 39",47.09721320000001,37.5289588
Маріуполь,улица Варганова,1,commercial,unknown,,"Маріуполь, улица Варганова, 1",47.0982434,37.546955
Маріуполь,улица Варганова,1/39,commercial,unknown,,"Маріуполь, улица Варганова, 1/39",47.0982434,37.546955
Маріуполь,улица Варганова,3,commercial,unknown,,"Маріуполь, улица Варганова, 3",47.09858269999999,37.5461661
Маріуполь,улица Воинов освободителей,3/2,commercial,unknown,,"Маріуполь, улица Воинов освободителей, 3/2",47.1002316,37.6378916
Маріуполь,Володарское шоссе,2,commercial,unknown,,"Маріуполь, Володарское шоссе, 2",47.1159417,37.5067341
Маріуполь,улица Гагарина,1А,commercial,unknown,,"Маріуполь, улица Гагарина, 1А",47.0665404,37.508159
Маріуполь,улица Гагарина,1Б,commercial,unknown,,"Маріуполь, улица Гагарина, 1Б",47.0665404,37.508159
Маріуполь,улица Гагарина,116А,commercial,unknown,,"Маріуполь, улица Гагарина, 116А",47.0578716,37.4940373
Маріуполь,улица Гагарина,116А,commercial,unknown,,"Маріуполь, улица Гагарина, 116А",47.0578716,37.4940373
Маріуполь,улица Гагарина,213,commercial,unknown,,"Маріуполь, улица Гагарина, 213",47.0448505,37.47949680000001
Маріуполь,улица Гагарина,213,commercial,unknown,,"Маріуполь, улица Гагарина, 213",47.0448505,37.47949680000001
Маріуполь,улица Георгиевская,59,commercial,unknown,,"Маріуполь, улица Георгиевская, 59",47.0941262,37.5493658
Маріуполь,улица Греческая,41,commercial,unknown,,"Маріуполь, улица Греческая, 41",47.0945085,37.5534826
Маріуполь,Зинцевый спуск,44,commercial,unknown,,"Маріуполь, Зинцевый спуск, 44",47.097133,37.543367
Маріуполь,проспект Ильича,140,commercial,unknown,,"Маріуполь, проспект Ильича, 140",47.1393804,37.5691328
Маріуполь,проспект Ильича,141,commercial,unknown,,"Маріуполь, проспект Ильича, 141",47.14025549999999,37.5673995
Маріуполь,"улица Апатова, 37 (Итальянская)",,commercial,unknown,,"Маріуполь, улица Апатова, 37 (Итальянская)",47.0918096,37.5572219
Маріуполь,"улица Апатова, 88 (Итальянская)",,commercial,unknown,,"Маріуполь, улица Апатова, 88 (Итальянская)",47.0922992,37.549538
Маріуполь,улица Итальянская,119,commercial,unknown,,"Маріуполь, улица Итальянская, 119",47.0937869,37.5385296
Маріуполь,улица Казанцева,40,commercial,unknown,,"Маріуполь, улица Казанцева, 40",47.0998952,37.5397161
Маріуполь,улица Карла Либкнехта,57,commercial,unknown,,"Маріуполь, улица Карла Либкнехта, 57",47.1051833,37.53651139999999
Маріуполь,улица Карла Либкнехта,201,commercial,unknown,,"Маріуполь, улица Карла Либкнехта, 201",47.1081256,37.5112509
Маріуполь,улица Киевская,76,commercial,unknown,,"Маріуполь, улица Киевская, 76",47.097133,37.543367
Маріуполь,перекресток бульвар Комсомольского и бульвар 50 лет Октября,,commercial,unknown,,"Маріуполь, перекресток бульвар Комсомольского и бульвар 50 лет Октября",47.0982094,37.637957
Маріуполь,улица Котляревского,1,commercial,unknown,,"Маріуполь, улица Котляревского, 1",47.11061429999999,37.5555191
Маріуполь,улица Краснофлотская,145А,commercial,unknown,,"Маріуполь, улица Краснофлотская, 145А",47.097133,37.543367
Маріуполь,улица Кронштадтская,2а,commercial,unknown,,"Маріуполь, улица Кронштадтская, 2а",47.0797787,37.5166773
Маріуполь,улица Кронштадтская,4,commercial,unknown,,"Маріуполь, улица Кронштадтская, 4",47.0798717,37.5158091
Маріуполь,улица Кронштадтская,4,commercial,unknown,,"Маріуполь, улица Кронштадтская, 4",47.0798717,37.5158091
Маріуполь,улица Кронштадтская,4,commercial,unknown,,"Маріуполь, улица Кронштадтская, 4",47.0798717,37.5158091
Маріуполь,улица Кронштадтская,4,commercial,unknown,,"Маріуполь, улица Кронштадтская, 4",47.0798717,37.5158091
Маріуполь,улица Кронштадтская,4,commercial,unknown,,"Маріуполь, улица Кронштадтская, 4",47.0798717,37.5158091
Маріуполь,улица Куйбышева,14,commercial,unknown,,"Маріуполь, улица Куйбышева, 14",47.1400489,37.5730734
Маріуполь,улица Куйбышева,16,commercial,unknown,,"Маріуполь, улица Куйбышева, 16",47.1403912,37.5727431
Маріуполь,улица Курчатова,35,commercial,unknown,,"Маріуполь, улица Курчатова, 35",47.159763,37.6136769
Маріуполь,улица Лавицкого,3,commercial,unknown,,"Маріуполь, улица Лавицкого, 3",47.08614190000001,37.5229336
Маріуполь,улица Лавицкого,16,commercial,unknown,,"Маріуполь, улица Лавицкого, 16",47.0872648,37.5192772
Маріуполь,улица Лавицкого,23,commercial,unknown,,"Маріуполь, улица Лавицкого, 23",47.0883598,37.5177828
Маріуполь,улица Ладыгина,25,commercial,unknown,,"Маріуполь, улица Ладыгина, 25",47.10625109999999,37.5272233
Маріуполь,проспект Ленина,7,commercial,unknown,,"Маріуполь, проспект Ленина, 7",47.097133,37.543367
Маріуполь,проспект Ленина,14,commercial,unknown,,"Маріуполь, проспект Ленина, 14",47.097133,37.543367
Маріуполь,проспект Ленина,15,commercial,unknown,,"Маріуполь, проспект Ленина, 15",47.097133,37.543367
Маріуполь,проспект Ленина,15,commercial,unknown,,"Маріуполь, проспект Ленина, 15",47.097133,37.543367
Маріуполь,проспект Ленина,19,commercial,unknown,,"Маріуполь, проспект Ленина, 19",47.097133,37.543367
Маріуполь,проспект Ленина,21,commercial,unknown,,"Маріуполь, проспект Ленина, 21",47.097133,37.543367
Маріуполь,проспект Ленина,24/24,commercial,unknown,,"Маріуполь, проспект Ленина, 24/24",47.097133,37.543367
Маріуполь,проспект Ленина,34,commercial,unknown,,"Маріуполь, проспект Ленина, 34",47.097133,37.543367
Маріуполь,проспект Ленина,34,commercial,unknown,,"Маріуполь, проспект Ленина, 34",47.097133,37.543367
Маріуполь,проспект Ленина,35,commercial,unknown,,"Маріуполь, проспект Ленина, 35",47.097133,37.543367
Маріуполь,проспект Ленина,43,commercial,unknown,,"Маріуполь, проспект Ленина, 43",47.097133,37.543367
Маріуполь,проспект Ленина,43,commercial,unknown,,"Маріуполь, проспект Ленина, 43",47.097133,37.543367
Маріуполь,проспект Ленина,47,commercial,unknown,,"Маріуполь, проспект Ленина, 47",47.097133,37.543367
Маріуполь,проспект Ленина,63/2,commercial,unknown,,"Маріуполь, проспект Ленина, 63/2",47.097133,37.543367
Маріуполь,"проспект Ленина, 66/39, 10",11,commercial,unknown,,"Маріуполь, проспект Ленина, 66/39, 10, 11",47.097133,37.543367
Маріуполь,проспект Ленина,68Б,commercial,unknown,,"Маріуполь, проспект Ленина, 68Б",47.097133,37.543367
Маріуполь,проспект Ленина,76,commercial,unknown,,"Маріуполь, проспект Ленина, 76",47.097133,37.543367
Маріуполь,"проспект Ленина, 81, пом. 1",,commercial,unknown,,"Маріуполь, проспект Ленина, 81, пом. 1",47.097133,37.543367
Маріуполь,проспект Ленина,82,commercial,unknown,,"Маріуполь, проспект Ленина, 82",47.097133,37.543367
Маріуполь,проспект Ленина,90,commercial,unknown,,"Маріуполь, проспект Ленина, 90",47.097133,37.543367
Маріуполь,проспект Ленина,93В,commercial,unknown,,"Маріуполь, проспект Ленина, 93В",47.097133,37.543367
Маріуполь,проспект Ленина,94,commercial,unknown,,"Маріуполь, проспект Ленина, 94",47.097133,37.543367
Маріуполь,"проспект Ленина, 107, пом. 138",,commercial,unknown,,"Маріуполь, проспект Ленина, 107, пом. 138",47.097133,37.543367
Маріуполь,проспект Ленина,111А,commercial,unknown,,"Маріуполь, проспект Ленина, 111А",47.097133,37.543367
Маріуполь,проспект Ленина,111А,commercial,unknown,,"Маріуполь, проспект Ленина, 111А",47.097133,37.543367
Маріуполь,улица Ломизова,10,commercial,unknown,,"Маріуполь, улица Ломизова, 10",47.1023718,37.6246072
Маріуполь,проспект Лунина,23,commercial,unknown,,"Маріуполь, проспект Лунина, 23",47.0674626,37.5103097
Маріуполь,проспект Лунина,31,commercial,unknown,,"Маріуполь, проспект Лунина, 31",47.06561689999999,37.5080284
Маріуполь,проспект Лунина,33,commercial,unknown,,"Маріуполь, проспект Лунина, 33",47.0651074,37.5075399
Маріуполь,проспект Лунина,33,commercial,unknown,,"Маріуполь, проспект Лунина, 33",47.0651074,37.5075399
Маріуполь,улица Мамина Сибиряка,39,commercial,unknown,,"Маріуполь, улица Мамина Сибиряка, 39",47.1487746,37.6078957
Маріуполь,улица Мамина Сибиряка,40,commercial,unknown,,"Маріуполь, улица Мамина Сибиряка, 40",47.14890579999999,37.6066327
Маріуполь,улица Мамина Сибиряка,47,commercial,unknown,,"Маріуполь, улица Мамина Сибиряка, 47",47.1498992,37.6058963
Маріуполь,"проспект Металлургов, 29, пом. 40, 56, 70",71,commercial,unknown,,"Маріуполь, проспект Металлургов, 29, пом. 40, 56, 70, 71",47.0938433,37.5431718
Маріуполь,"проспект Металлургов, 33, пом. 22",,commercial,unknown,,"Маріуполь, проспект Металлургов, 33, пом. 22",47.0952912,37.5436509
Маріуполь,проспект Металлургов,39/1-3,commercial,unknown,,"Маріуполь, проспект Металлургов, 39/1-3",47.0901351,37.542182
Маріуполь,проспект Металлургов,66,commercial,unknown,,"Маріуполь, проспект Металлургов, 66",47.1039914,37.5496825
Маріуполь,проспект Металлургов,69,commercial,unknown,,"Маріуполь, проспект Металлургов, 69",47.1042674,37.550594
Маріуполь,проспект Металлургов,88А,commercial,unknown,,"Маріуполь, проспект Металлургов, 88А",47.1045151,37.549026
Маріуполь,проспект Металлургов,95,commercial,unknown,,"Маріуполь, проспект Металлургов, 95",47.1068507,37.5537165
Маріуполь,проспект Металлургов,102,commercial,unknown,,"Маріуполь, проспект Металлургов, 102",47.10987799999999,37.5543188
Маріуполь,проспект Металлургов,102,commercial,unknown,,"Маріуполь, проспект Металлургов, 102",47.10987799999999,37.5543188
Маріуполь,проспект Металлургов,213,commercial,unknown,,"Маріуполь, проспект Металлургов, 213",47.1313781,37.5663914
Маріуполь,проспект Металлургов,219,commercial,unknown,,"Маріуполь, проспект Металлургов, 219",47.1328109,37.5666338
Маріуполь,проспект Металлургов,219,commercial,unknown,,"Маріуполь, проспект Металлургов, 219",47.1328109,37.5666338
Маріуполь,проспект Металлургов,223,commercial,unknown,,"Маріуполь, проспект Металлургов, 223",47.1335191,37.5668878
Маріуполь,улица Мичмана Павлова,10,commercial,unknown,,"Маріуполь, улица Мичмана Павлова, 10",47.0851586,37.5533668
Маріуполь,переулок Нахимова,5,commercial,unknown,,"Маріуполь, переулок Нахимова, 5",47.0967461,37.5374784
Маріуполь,переулок Нахимова,5А,commercial,unknown,,"Маріуполь, переулок Нахимова, 5А",47.0684136,37.5083732
Маріуполь,проспект Нахимова,66,commercial,unknown,,"Маріуполь, проспект Нахимова, 66",47.074252,37.5097521
Маріуполь,проспект Нахимова,68,commercial,unknown,,"Маріуполь, проспект Нахимова, 68",47.0745675,37.5104058
Маріуполь,проспект Нахимова,108,commercial,unknown,,"Маріуполь, проспект Нахимова, 108",47.0808543,37.51815029999999
Маріуполь,проспект Нахимова,124,commercial,unknown,,"Маріуполь, проспект Нахимова, 124",47.08334259999999,37.5207097
Маріуполь,проспект Нахимова,162,commercial,unknown,,"Маріуполь, проспект Нахимова, 162",47.0877692,37.5249253
Маріуполь,проспект Нахимова,162,commercial,unknown,,"Маріуполь, проспект Нахимова, 162",47.0877692,37.5249253
Маріуполь,проспект Нахимова,162,commercial,unknown,,"Маріуполь, проспект Нахимова, 162",47.0877692,37.5249253
Маріуполь,проспект Нахимова,162,commercial,unknown,,"Маріуполь, проспект Нахимова, 162",47.0877692,37.5249253
Маріуполь,проспект Нахимова,168,commercial,unknown,,"Маріуполь, проспект Нахимова, 168",47.0880309,37.5255989
Маріуполь,проспект Нахимова,174/1,commercial,unknown,,"Маріуполь, проспект Нахимова, 174/1",47.0912959,37.5298957
Маріуполь,улица Николаевская,27,commercial,unknown,,"Маріуполь, улица Николаевская, 27",47.0960285,37.55747059999999
Маріуполь,улица Николаевская,62,commercial,unknown,,"Маріуполь, улица Николаевская, 62",47.0980633,37.5492404
Маріуполь,улица Олимпийская,73,commercial,unknown,,"Маріуполь, улица Олимпийская, 73",47.1090096,37.6744301
Маріуполь,улица Олимпийская,71,commercial,unknown,,"Маріуполь, улица Олимпийская, 71",47.1089365,37.67342
Маріуполь,улица Орджоникидзе,29,commercial,unknown,,"Маріуполь, улица Орджоникидзе, 29",47.1028221,37.6514392
Маріуполь,улица Пашковского,8/1,commercial,unknown,,"Маріуполь, улица Пашковского, 8/1",47.1094361,37.6359229
Маріуполь,улица Пашковского,16,commercial,unknown,,"Маріуполь, улица Пашковского, 16",47.1092897,37.6383133
Маріуполь,улица Пашковского,16,commercial,unknown,,"Маріуполь, улица Пашковского, 16",47.1092897,37.6383133
Маріуполь,улица Пашковского,22/40,commercial,unknown,,"Маріуполь, улица Пашковского, 22/40",47.1091755,37.6404946
Маріуполь,улица Пашковского,24/27,commercial,unknown,,"Маріуполь, улица Пашковского, 24/27",47.1091157,37.64152
Маріуполь,улица Пашковского,34,commercial,unknown,,"Маріуполь, улица Пашковского, 34",47.1088925,37.6452418
Маріуполь,улица Писарева,28/2б,commercial,unknown,,"Маріуполь, улица Писарева, 28/2б",47.1062454,37.5489814
Маріуполь,улица Писарева,28/187,commercial,unknown,,"Маріуполь, улица Писарева, 28/187",47.1062454,37.5489814
Маріуполь,улица Писарева,28/188а,commercial,unknown,,"Маріуполь, улица Писарева, 28/188а",47.1062454,37.5489814
Маріуполь,проспект Победы,24/19,commercial,unknown,,"Маріуполь, проспект Победы, 24/19",47.10786359999999,37.6338889
Маріуполь,проспект Победы,24/19,commercial,unknown,,"Маріуполь, проспект Победы, 24/19",47.10786359999999,37.6338889
Маріуполь,проспект Победы,28,commercial,unknown,,"Маріуполь, проспект Победы, 28",47.107834,37.6348169
Маріуполь,проспект Победы,32/42,commercial,unknown,,"Маріуполь, проспект Победы, 32/42",47.1077424,37.6358304
Маріуполь,проспект Победы,43/21,commercial,unknown,,"Маріуполь, проспект Победы, 43/21",47.1069504,37.6380045
Маріуполь,проспект Победы,75,commercial,unknown,,"Маріуполь, проспект Победы, 75",47.1062349,37.6500952
Маріуполь,проспект Победы,85,commercial,unknown,,"Маріуполь, проспект Победы, 85",47.106112,37.6535028
Маріуполь,проспект Победы,90,commercial,unknown,,"Маріуполь, проспект Победы, 90",47.1062021,37.6640454
Маріуполь,проспект Победы,98,commercial,unknown,,"Маріуполь, проспект Победы, 98",47.1059777,37.6668117
Маріуполь,"проспект Победы, 99, пом. 144, 148, 149",151,commercial,unknown,,"Маріуполь, проспект Победы, 99, пом. 144, 148, 149, 151",47.1058418,37.6570153
Маріуполь,проспект Победы,109,commercial,unknown,,"Маріуполь, проспект Победы, 109",47.1053385,37.6644933
Маріуполь,проспект Победы,109,commercial,unknown,,"Маріуполь, проспект Победы, 109",47.1053385,37.6644933
Маріуполь,проспект Победы,111,commercial,unknown,,"Маріуполь, проспект Победы, 111",47.105284,37.665245
Маріуполь,проспект Победы,111,commercial,unknown,,"Маріуполь, проспект Победы, 111",47.105284,37.665245
Маріуполь,перекресток улица Приазовская и улица Курчатова,,commercial,unknown,,"Маріуполь, перекресток улица Приазовская и улица Курчатова",47.1591698,37.6088106
Маріуполь,переулок Рижский,27,commercial,unknown,,"Маріуполь, переулок Рижский, 27",47.1151638,37.6744515
Маріуполь,улица Варганова,2,commercial,unknown,,"Маріуполь, улица Варганова, 2",47.0979827,37.5464383
Маріуполь,улица Солнечная,5,commercial,unknown,,"Маріуполь, улица Солнечная, 5",47.097133,37.543367
Маріуполь,проспект Строителей,52,commercial,unknown,,"Маріуполь, проспект Строителей, 52",47.0887708,37.5193597
Маріуполь,проспект Строителей,52,commercial,unknown,,"Маріуполь, проспект Строителей, 52",47.0887708,37.5193597
Маріуполь,проспект Строителей,52,commercial,unknown,,"Маріуполь, проспект Строителей, 52",47.0887708,37.5193597
Маріуполь,проспект Строителей,60,commercial,unknown,,"Маріуполь, проспект Строителей, 60",47.1098945,37.5252391
Маріуполь,проспект Строителей,85А,commercial,unknown,,"Маріуполь, проспект Строителей, 85А",47.0899315,37.5237343
Маріуполь,проспект Строителей,92,commercial,unknown,,"Маріуполь, проспект Строителей, 92",47.09728399999999,37.5224929
Маріуполь,проспект Строителей,92,commercial,unknown,,"Маріуполь, проспект Строителей, 92",47.09728399999999,37.5224929
Маріуполь,проспект Строителей,96,commercial,unknown,,"Маріуполь, проспект Строителей, 96",47.09868700000001,37.523423
Маріуполь,проспект Строителей,101,commercial,unknown,,"Маріуполь, проспект Строителей, 101",47.0938165,37.5232458
Маріуполь,проспект Строителей,114,commercial,unknown,,"Маріуполь, проспект Строителей, 114",47.10391389999999,37.5240188
Маріуполь,проспект Строителей,115А,commercial,unknown,,"Маріуполь, проспект Строителей, 115А",47.0962541,37.5235596
Маріуполь,проспект Строителей,167,commercial,unknown,,"Маріуполь, проспект Строителей, 167",47.1176144,37.5286443
Маріуполь,улица Торговая,20,commercial,unknown,,"Маріуполь, улица Торговая, 20",47.0933219,37.5596743
Маріуполь,улица Урицкого,98,commercial,unknown,,"Маріуполь, улица Урицкого, 98",47.1220244,37.5186793
Маріуполь,улица Харлампиевская,13,commercial,unknown,,"Маріуполь, улица Харлампиевская, 13",47.09274980000001,37.5571158
Маріуполь,улица Черноморская,18,commercial,unknown,,"Маріуполь, улица Черноморская, 18",47.07980939999999,37.5131265
Маріуполь,улица Черноморская,20,commercial,unknown,,"Маріуполь, улица Черноморская, 20",47.08025019999999,37.513365
Маріуполь,бульвар Шевченко,52/54,commercial,unknown,,"Маріуполь, бульвар Шевченко, 52/54",47.1068766,37.55689470000001
Маріуполь,бульвар Шевченко,54,commercial,unknown,,"Маріуполь, бульвар Шевченко, 54",47.1069207,37.5563227
Маріуполь,бульвар Шевченко,91,commercial,unknown,,"Маріуполь, бульвар Шевченко, 91",47.109877,37.5530924
Маріуполь,бульвар Шевченко,240,commercial,unknown,,"Маріуполь, бульвар Шевченко, 240",47.1153948,37.5221582
Маріуполь,бульвар Шевченко,333,commercial,unknown,,"Маріуполь, бульвар Шевченко, 333",47.1177612,37.5153356
Маріуполь,бульвар Шевченко,357а,commercial,unknown,,"Маріуполь, бульвар Шевченко, 357а",47.1188041,37.5094526
Маріуполь,проспект Ленина,71А,commercial,unknown,,"Маріуполь, проспект Ленина, 71А",47.097133,37.543367
Маріуполь,проспект Ильича,136,commercial,unknown,,"Маріуполь, проспект Ильича, 136",47.1385324,37.5717023
Маріуполь,проспект Нахимова,200,commercial,unknown,,"Маріуполь, проспект Нахимова, 200",47.0956619,37.5357695
Маріуполь,проспект Ленина,99,commercial,unknown,,"Маріуполь, проспект Ленина, 99",47.097133,37.543367
Маріуполь,проспект Строителей,70А,commercial,unknown,,"Маріуполь, проспект Строителей, 70А",47.1098901,37.5252384
Маріуполь,проспект Победы,107А,commercial,unknown,,"Маріуполь, проспект Победы, 107А",47.1047363,37.6634922
Маріуполь,улица Кронштадтская,11,commercial,unknown,,"Маріуполь, улица Кронштадтская, 11",47.08188819999999,37.516369
Маріуполь,переулок Олимпийский,,commercial,unknown,,"Маріуполь, переулок Олимпийский",47.1080455,37.6675054
Маріуполь,проспект Металлургов,137А,commercial,unknown,,"Маріуполь, проспект Металлургов, 137А",47.1190392,37.5644586
Маріуполь,улица Семашко,15,commercial,unknown,,"Маріуполь, улица Семашко, 15",47.1395496,37.5978372
Маріуполь,улица Таганрогская,52,commercial,unknown,,"Маріуполь, улица Таганрогская, 52",47.1280582,37.6543671
Маріуполь,улица Карла Либкнехта,185,commercial,unknown,,"Маріуполь, улица Карла Либкнехта, 185",47.1085753,37.5167782
Маріуполь,проспект Ильича,143,commercial,unknown,,"Маріуполь, проспект Ильича, 143",47.14086229999999,37.5663732
Маріуполь,проспект Нахимова,194,commercial,unknown,,"Маріуполь, проспект Нахимова, 194",47.0933814,37.5334909
Маріуполь,улица Виноградная,3,commercial,unknown,,"Маріуполь, улица Виноградная, 3",47.0945456,37.6384738
Маріуполь,улица Виноградная,17А,commercial,unknown,,"Маріуполь, улица Виноградная, 17А",47.0930287,37.64149829999999
Маріуполь,улица Виноградная,37А,commercial,unknown,,"Маріуполь, улица Виноградная, 37А",47.09569159999999,37.6326401
Маріуполь,улица Азовстальская,2,commercial,unknown,,"Маріуполь, улица Азовстальская, 2",47.1011286,37.6613936
Маріуполь,переулок Киевский,4,commercial,unknown,,"Маріуполь, переулок Киевский, 4",47.109934,37.6430668
Маріуполь,улица Бахмутская,16А,commercial,unknown,,"Маріуполь, улица Бахмутская, 16А",47.1161626,37.5499256
Маріуполь,бульвар 50 лет Октября,3/2,commercial,unknown,,"Маріуполь, бульвар 50 лет Октября, 3/2",47.1005937,37.6370337
Маріуполь,улица Николаевская,3,commercial,unknown,,"Маріуполь, улица Николаевская, 3",47.0940671,37.5622346
Маріуполь,проспект Ленина,18,commercial,unknown,,"Маріуполь, проспект Ленина, 18",47.097133,37.543367
Маріуполь,улица Энгельса,1А,commercial,unknown,,"Маріуполь, улица Энгельса, 1А",47.090678,37.5455915
Маріуполь,улица Урицкого,96А,commercial,unknown,,"Маріуполь, улица Урицкого, 96А",47.123545,37.5102741
Маріуполь,улица Азовстальская,13В,commercial,unknown,,"Маріуполь, улица Азовстальская, 13В",47.1017933,37.6301253
Маріуполь,улица Карпинского,74,commercial,unknown,,"Маріуполь, улица Карпинского, 74",47.1292745,37.5589911
Маріуполь,улица Николаевская,82,commercial,unknown,,"Маріуполь, улица Николаевская, 82",47.0990743,37.5465165
Маріуполь,улица Николаевская,89,commercial,unknown,,"Маріуполь, улица Николаевская, 89",47.1004362,37.54745010000001
Маріуполь,бульвар Приморский,35,commercial,unknown,,"Маріуполь, бульвар Приморский, 35",47.0797599,37.5320858
Маріуполь,проспект Ленина,34,commercial,unknown,,"Маріуполь, проспект Ленина, 34",47.097133,37.543367
Маріуполь,улица Лепсе,13/1,commercial,unknown,,"Маріуполь, улица Лепсе, 13/1",47.1140176,37.5867993
Маріуполь,улица Греческая,212А,commercial,unknown,,"Маріуполь, улица Греческая, 212А",47.1150067,37.5822771
Маріуполь,бульвар Шевченко,361А,commercial,unknown,,"Маріуполь, бульвар Шевченко, 361А",47.1185328,37.5086264
Маріуполь,бульвар Комсомольский,68,commercial,unknown,,"Маріуполь, бульвар Комсомольский, 68",47.097867,37.6497609
Маріуполь,проспект Маршала Жукова,94А,commercial,unknown,,"Маріуполь, проспект Маршала Жукова, 94А",47.1273966,37.6901596
Маріуполь,улица Голубенко,3,commercial,unknown,,"Маріуполь, улица Голубенко, 3",47.11313639999999,37.6264285
Маріуполь,проспект Строителей,39,commercial,unknown,,"Маріуполь, проспект Строителей, 39",47.0851775,37.5170034
Маріуполь,проспект Строителей,39,commercial,unknown,,"Маріуполь, проспект Строителей, 39",47.0851775,37.5170034
Маріуполь,проспект Строителей,39,commercial,unknown,,"Маріуполь, проспект Строителей, 39",47.0851775,37.5170034
Маріуполь,улица Московская,22А,commercial,unknown,,"Маріуполь, улица Московская, 22А",47.097133,37.543367
Маріуполь,проспект Нахимова,3,commercial,unknown,,"Маріуполь, проспект Нахимова, 3",47.06814180000001,37.5091019
Маріуполь,бульвар Богдана Хмельницкого,3,commercial,unknown,,"Маріуполь, бульвар Богдана Хмельницкого, 3",47.0921447,37.5274029
Маріуполь,бульвар Богдана Хмельницкого,3,commercial,unknown,,"Маріуполь, бульвар Богдана Хмельницкого, 3",47.0921447,37.5274029
Маріуполь,проспект Ленина,79,commercial,unknown,,"Маріуполь, проспект Ленина, 79",47.097133,37.543367
Маріуполь,улица Громовой,61А,commercial,unknown,,"Маріуполь, улица Громовой, 61А",47.0955031,37.5139334
Маріуполь,"пгт. Старый Крым, улица Кирова",45,commercial,unknown,,"Маріуполь, пгт. Старый Крым, улица Кирова, 45",45.0274234,35.0863723
Маріуполь,проспект Победы,16,commercial,unknown,,"Маріуполь, проспект Победы, 16",47.1085591,37.6284316
Маріуполь,улица 7 проезд,3,commercial,unknown,,"Маріуполь, улица 7 проезд, 3",47.097133,37.543367
Маріуполь,улица 7 проезд,5,commercial,unknown,,"Маріуполь, улица 7 проезд, 5",47.097133,37.543367
Маріуполь,улица 7 проезд,8,commercial,unknown,,"Маріуполь, улица 7 проезд, 8",47.097133,37.543367
Маріуполь,улица Варганова,3,commercial,unknown,,"Маріуполь, улица Варганова, 3",47.09858269999999,37.5461661
Маріуполь,улица Виноградная,17,commercial,unknown,,"Маріуполь, улица Виноградная, 17",47.0936977,37.6424544
Маріуполь,улица Волгодонская,18,commercial,unknown,,"Маріуполь, улица Волгодонская, 18",47.1084354,37.632935
Маріуполь,улица Волгодонская,20/7,commercial,unknown,,"Маріуполь, улица Волгодонская, 20/7",47.1090077,37.6327307
Маріуполь,улица Георгиевская,66,commercial,unknown,,"Маріуполь, улица Георгиевская, 66",47.0934104,37.5498186
Маріуполь,улица Громовой,44,commercial,unknown,,"Маріуполь, улица Громовой, 44",47.0935797,37.5128967
Маріуполь,улица Донская,10,commercial,unknown,,"Маріуполь, улица Донская, 10",47.10989,37.6522139
Маріуполь,проспект Ильича,13А,commercial,unknown,,"Маріуполь, проспект Ильича, 13А",47.1361064,37.6007404
Маріуполь,улица Казанцева,22А,commercial,unknown,,"Маріуполь, улица Казанцева, 22А",47.0965728,37.5392623
Маріуполь,проспект Карпова,35,commercial,unknown,,"Маріуполь, проспект Карпова, 35",47.1617112,37.5441128
Маріуполь,улица Каффайская,69,commercial,unknown,,"Маріуполь, улица Каффайская, 69",47.1059097,37.5493261
Маріуполь,улица Киевская,68,commercial,unknown,,"Маріуполь, улица Киевская, 68",47.097133,37.543367
Маріуполь,улица Краснофлотская,128,commercial,unknown,,"Маріуполь, улица Краснофлотская, 128",47.097133,37.543367
Маріуполь,улица Краснофлотская,170,commercial,unknown,,"Маріуполь, улица Краснофлотская, 170",47.097133,37.543367
Маріуполь,улица Краснофлотская,192,commercial,unknown,,"Маріуполь, улица Краснофлотская, 192",47.097133,37.543367
Маріуполь,улица Левченко,28,commercial,unknown,,"Маріуполь, улица Левченко, 28",47.1370498,37.593042
Маріуполь,проспект Ленина,90,commercial,unknown,,"Маріуполь, проспект Ленина, 90",47.097133,37.543367
Маріуполь,проспект Ленина,93Б,commercial,unknown,,"Маріуполь, проспект Ленина, 93Б",47.097133,37.543367
Маріуполь,проспект Ленина,102,commercial,unknown,,"Маріуполь, проспект Ленина, 102",47.097133,37.543367
Маріуполь,проспект Ленина,103А,commercial,unknown,,"Маріуполь, проспект Ленина, 103А",47.097133,37.543367
Маріуполь,"проспект Ленина, 123А (130)",,commercial,unknown,,"Маріуполь, проспект Ленина, 123А (130)",47.097133,37.543367
Маріуполь,"проспект Ленина, 123А (133)",,commercial,unknown,,"Маріуполь, проспект Ленина, 123А (133)",47.097133,37.543367
Маріуполь,улица Линника,26,commercial,unknown,,"Маріуполь, улица Линника, 26",47.0867,37.5606101
Маріуполь,улица Матросова,7А,commercial,unknown,,"Маріуполь, улица Матросова, 7А",47.1093616,37.5273547
Маріуполь,проспект Металлургов,54,commercial,unknown,,"Маріуполь, проспект Металлургов, 54",47.0951146,37.5421134
Маріуполь,проспект Металлургов,69,commercial,unknown,,"Маріуполь, проспект Металлургов, 69",47.1042674,37.550594
Маріуполь,проспект Металлургов,84Б,commercial,unknown,,"Маріуполь, проспект Металлургов, 84Б",47.1039796,37.5484333
Маріуполь,проспект Металлургов,129Б,commercial,unknown,,"Маріуполь, проспект Металлургов, 129Б",47.1121126,37.5580582
Маріуполь,проспект Металлургов,162,commercial,unknown,,"Маріуполь, проспект Металлургов, 162",47.127525,37.563266
Маріуполь,"проспект Металлургов, 170, пом. 4",,commercial,unknown,,"Маріуполь, проспект Металлургов, 170, пом. 4",47.129979,37.5642947
Маріуполь,"проспект Металлургов, 170, пом. 6",,commercial,unknown,,"Маріуполь, проспект Металлургов, 170, пом. 6",47.129979,37.5642947
Маріуполь,проспект Металлургов,170А,commercial,unknown,,"Маріуполь, проспект Металлургов, 170А",47.129979,37.5642947
Маріуполь,переулок Нахимова,5,commercial,unknown,,"Маріуполь, переулок Нахимова, 5",47.0967461,37.5374784
Маріуполь,проспект Нахимова,92,commercial,unknown,,"Маріуполь, проспект Нахимова, 92",47.0782743,37.5151778
Маріуполь,улица Пашковского,61А,commercial,unknown,,"Маріуполь, улица Пашковского, 61А",47.1072958,37.6539352
Маріуполь,проспект Победы,99,commercial,unknown,,"Маріуполь, проспект Победы, 99",47.1058418,37.6570153
Маріуполь,улица Солнечная,1А,commercial,unknown,,"Маріуполь, улица Солнечная, 1А",47.097133,37.543367
Маріуполь,проспект Строителей,129,commercial,unknown,,"Маріуполь, проспект Строителей, 129",47.1021414,37.5256164
Маріуполь,проспект Строителей,138А,commercial,unknown,,"Маріуполь, проспект Строителей, 138А",47.11330710000001,37.5241099
Маріуполь,улица Тополиная,14,commercial,unknown,,"Маріуполь, улица Тополиная, 14",47.1701814,37.53238229999999
Маріуполь,улица Урицкого,101,commercial,unknown,,"Маріуполь, улица Урицкого, 101",47.1256316,37.5109593
Маріуполь,улица Урицкого,114А,commercial,unknown,,"Маріуполь, улица Урицкого, 114А",47.1222263,37.5140924
Маріуполь,улица Февральская,4,commercial,unknown,,"Маріуполь, улица Февральская, 4",47.129025,37.67163499999999
Маріуполь,бульвар Шевченко,289,commercial,unknown,,"Маріуполь, бульвар Шевченко, 289",47.1170812,37.5233327
Маріуполь,тер. Шмидта гавань,6,commercial,unknown,,"Маріуполь, тер. Шмидта гавань, 6",47.097133,37.543367
Маріуполь,улица Энгельса,28,commercial,unknown,,"Маріуполь, улица Энгельса, 28",47.0957336,37.5458858
Маріуполь,улица Пашковского,49,commercial,unknown,,"Маріуполь, улица Пашковского, 49",47.1083357,37.6462957
Маріуполь,проспект Победы,99,commercial,unknown,,"Маріуполь, проспект Победы, 99",47.1058418,37.6570153
Маріуполь,пересечение улица Куприна и улица Матросова,,commercial,unknown,,"Маріуполь, пересечение улица Куприна и улица Матросова",47.1080418,37.5090456
Маріуполь,улица Солнечная,1А,commercial,unknown,,"Маріуполь, улица Солнечная, 1А",47.097133,37.543367
Маріуполь,проспект Ленина,102,commercial,unknown,,"Маріуполь, проспект Ленина, 102",47.097133,37.543367
Маріуполь,проспект Строителей,144,commercial,unknown,,"Маріуполь, проспект Строителей, 144",47.1146703,37.5247756
Маріуполь,"переулок Пляжный, 1А (Курортный)",,commercial,unknown,,"Маріуполь, переулок Пляжный, 1А (Курортный)",47.08430329999999,37.5466377
Маріуполь,"переулок Пляжный, 1А (Курортный)",,commercial,unknown,,"Маріуполь, переулок Пляжный, 1А (Курортный)",47.08430329999999,37.5466377
Маріуполь,улица Курчатова,47,commercial,unknown,,"Маріуполь, улица Курчатова, 47",47.1617145,37.6115567
Маріуполь,переулок Лечебный,,commercial,unknown,,"Маріуполь, переулок Лечебный",47.1105257,37.6356788
Маріуполь,переулок Лечебный,,commercial,unknown,,"Маріуполь, переулок Лечебный",47.1105257,37.6356788
Маріуполь,переулок Лечебный,,commercial,unknown,,"Маріуполь, переулок Лечебный",47.1105257,37.6356788
Маріуполь,проспект 1 Мая,,commercial,unknown,,"Маріуполь, проспект 1 Мая",47.097133,37.543367
Маріуполь,проспект 1 Мая,,commercial,unknown,,"Маріуполь, проспект 1 Мая",47.097133,37.543367
Маріуполь,проспект 1 Мая,,commercial,unknown,,"Маріуполь, проспект 1 Мая",47.097133,37.543367
Маріуполь,улица Латышева,45А,commercial,unknown,,"Маріуполь, улица Латышева, 45А",47.0678364,37.4826505
Маріуполь,улица Олимпийская,193,commercial,unknown,,"Маріуполь, улица Олимпийская, 193",47.1255457,37.6820978
Маріуполь,улица Олимпийская,193Б,commercial,unknown,,"Маріуполь, улица Олимпийская, 193Б",47.1255457,37.6820978
Маріуполь,улица 50 лет СССР,51,commercial,unknown,,"Маріуполь, улица 50 лет СССР, 51",47.097133,37.543367
Маріуполь,улица Краснофлотская,194/196,commercial,unknown,,"Маріуполь, улица Краснофлотская, 194/196",47.097133,37.543367
Маріуполь,проспект Металлургов,208,commercial,unknown,,"Маріуполь, проспект Металлургов, 208",47.13784649999999,37.5676279
Маріуполь,улица Гонды,2,commercial,unknown,,"Маріуполь, улица Гонды, 2",47.1218559,37.5667862
Маріуполь,проспект Нахимова,104,commercial,unknown,,"Маріуполь, проспект Нахимова, 104",47.0793023,37.5164307
Маріуполь,проспект Нахимова,103,commercial,unknown,,"Маріуполь, проспект Нахимова, 103",47.0950569,37.5380143
Маріуполь,улица Шота Руставели,70,commercial,unknown,,"Маріуполь, улица Шота Руставели, 70",47.11472149999999,37.5367158
Маріуполь,проспект Металлургов,57,commercial,unknown,,"Маріуполь, проспект Металлургов, 57",47.1019307,37.5487384
Маріуполь,проспект Металлургов,57,commercial,unknown,,"Маріуполь, проспект Металлургов, 57",47.1019307,37.5487384
Маріуполь,переулок Семенишина,10,commercial,unknown,,"Маріуполь, переулок Семенишина, 10",47.0896224,37.5519354
Маріуполь,проспект Победы,51/32,commercial,unknown,,"Маріуполь, проспект Победы, 51/32",47.10681,37.639857
Маріуполь,проспект Победы,51/32,commercial,unknown,,"Маріуполь, проспект Победы, 51/32",47.10681,37.639857
Маріуполь,проспект Победы,98,commercial,unknown,,"Маріуполь, проспект Победы, 98",47.1059777,37.6668117
Маріуполь,"улица Козлова, 107 (Охотничья)",,commercial,unknown,,"Маріуполь, улица Козлова, 107 (Охотничья)",47.1738557,37.57896789999999
Маріуполь,улица Сеченова,52А,commercial,unknown,,"Маріуполь, улица Сеченова, 52А",47.1339258,37.5643044
Маріуполь,улица Карпинского,68,commercial,unknown,,"Маріуполь, улица Карпинского, 68",47.1310203,37.5596604
Маріуполь,26 квартал,3,commercial,unknown,,"Маріуполь, 26 квартал, 3",47.097133,37.543367
Маріуполь,улица Карпинского,60,commercial,unknown,,"Маріуполь, улица Карпинского, 60",47.132324,37.5599684
Маріуполь,проспект Металлургов,169,commercial,unknown,,"Маріуполь, проспект Металлургов, 169",47.12441980000001,37.5644146
Маріуполь,проспект Металлургов,194,commercial,unknown,,"Маріуполь, проспект Металлургов, 194",47.13351900000001,37.5660983
Маріуполь,проспект Металлургов,64,commercial,unknown,,"Маріуполь, проспект Металлургов, 64",47.10031110000001,37.5458221
Маріуполь,переулок Банный,1,commercial,unknown,,"Маріуполь, переулок Банный, 1",47.1103488,37.6145985
Маріуполь,переулок Банный,2,commercial,unknown,,"Маріуполь, переулок Банный, 2",47.1119421,37.6175784
Маріуполь,переулок Банный,4,commercial,unknown,,"Маріуполь, переулок Банный, 4",47.11185469999999,37.6185992
Маріуполь,переулок Банный,5,commercial,unknown,,"Маріуполь, переулок Банный, 5",47.1115316,37.6175482
Маріуполь,переулок Банный,6,commercial,unknown,,"Маріуполь, переулок Банный, 6",47.1117253,37.6197461
Маріуполь,переулок Банный,7,commercial,unknown,,"Маріуполь, переулок Банный, 7",47.1114926,37.6184688
Маріуполь,переулок Банный,8,commercial,unknown,,"Маріуполь, переулок Банный, 8",47.111711,37.6205022
Маріуполь,переулок Банный,10,commercial,unknown,,"Маріуполь, переулок Банный, 10",47.1115424,37.6209407
Маріуполь,улица Якова Гугеля,26,commercial,unknown,,"Маріуполь, улица Якова Гугеля, 26",47.1118489,37.6208511
Маріуполь,"улица Коксохима, 1 (Коксохимическая)",,commercial,unknown,,"Маріуполь, улица Коксохима, 1 (Коксохимическая)",47.097133,37.543367
Маріуполь,"улица Коксохима, 5 (Коксохимическая)",,commercial,unknown,,"Маріуполь, улица Коксохима, 5 (Коксохимическая)",47.1069277,37.6166274
Маріуполь,"улица Коксохима, 7 (Коксохимическая)",,commercial,unknown,,"Маріуполь, улица Коксохима, 7 (Коксохимическая)",47.1071327,37.6162743
Маріуполь,улица Короленко,8,commercial,unknown,,"Маріуполь, улица Короленко, 8",47.1112214,37.6178752
Маріуполь,улица Короленко,11,commercial,unknown,,"Маріуполь, улица Короленко, 11",47.113474,37.6181005
Маріуполь,улица Лепорского,1,commercial,unknown,,"Маріуполь, улица Лепорского, 1",47.1073735,37.6145315
Маріуполь,улица Лепорского,5,commercial,unknown,,"Маріуполь, улица Лепорского, 5",47.1099055,37.6161683
Маріуполь,улица Лепорского,6,commercial,unknown,,"Маріуполь, улица Лепорского, 6",47.111244,37.6172988
Маріуполь,улица Лепорского,9,commercial,unknown,,"Маріуполь, улица Лепорского, 9",47.1111364,37.6163595
Маріуполь,улица Лепорского,11,commercial,unknown,,"Маріуполь, улица Лепорского, 11",47.1115655,37.616435
Маріуполь,проспект Победы,5,commercial,unknown,,"Маріуполь, проспект Победы, 5",47.108147,37.6172065
Маріуполь,проспект Победы,5,commercial,unknown,,"Маріуполь, проспект Победы, 5",47.108147,37.6172065
Маріуполь,проспект Победы,7,commercial,unknown,,"Маріуполь, проспект Победы, 7",47.1080902,37.6186492
Маріуполь,переулок Шепотинника,5,commercial,unknown,,"Маріуполь, переулок Шепотинника, 5",47.1121237,37.6205501
Маріуполь,переулок Шепотинника,7,commercial,unknown,,"Маріуполь, переулок Шепотинника, 7",47.1121108,37.6209574
Маріуполь,переулок Шепотинника,14,commercial,unknown,,"Маріуполь, переулок Шепотинника, 14",47.1128986,37.6162842
Маріуполь,"пгт. Сартана, улица Челюскинцев",32,commercial,unknown,,"Маріуполь, пгт. Сартана, улица Челюскинцев, 32",47.1710664,37.69710269999999
Маріуполь,"пгт. Старый Крым, улица Гранитная",93,commercial,unknown,,"Маріуполь, пгт. Старый Крым, улица Гранитная, 93",47.1591388,37.4863416
Маріуполь,проспект Карпова,1,commercial,unknown,,"Маріуполь, проспект Карпова, 1",47.1493872,37.5501514
Маріуполь,проспект Карпова,1,commercial,unknown,,"Маріуполь, проспект Карпова, 1",47.1493872,37.5501514
Маріуполь,проспект Карпова,1,commercial,unknown,,"Маріуполь, проспект Карпова, 1",47.1493872,37.5501514
Маріуполь,проспект Металлургов,62,commercial,unknown,,"Маріуполь, проспект Металлургов, 62",47.0998107,37.5453053
Маріуполь,улица Шепотиленко,66А,commercial,unknown,,"Маріуполь, улица Шепотиленко, 66А",47.159143,37.5872744
Маріуполь,пересечение улица Запорожская и переулок Запорожский,,commercial,unknown,,"Маріуполь, пересечение улица Запорожская и переулок Запорожский",47.1641434,37.5931407
Маріуполь,проспект Ленина,46,commercial,unknown,,"Маріуполь, проспект Ленина, 46",47.097133,37.543367
Маріуполь,улица Тарасова,16,commercial,unknown,,"Маріуполь, улица Тарасова, 16",47.1111488,37.5324508
Маріуполь,проспект Победы,14,commercial,unknown,,"Маріуполь, проспект Победы, 14",47.1088214,37.6214787
Маріуполь,улица Громовой,52,commercial,unknown,,"Маріуполь, улица Громовой, 52",47.096336,37.5112365
Маріуполь,улица Громовой,69,commercial,unknown,,"Маріуполь, улица Громовой, 69",47.098014,37.5144265
Маріуполь,улица Зелинского,89,commercial,unknown,,"Маріуполь, улица Зелинского, 89",47.0977006,37.5161965
Маріуполь,улица Зелинского,89А,commercial,unknown,,"Маріуполь, улица Зелинского, 89А",47.0977006,37.5161965
Маріуполь,улица Энгельса,28,commercial,unknown,,"Маріуполь, улица Энгельса, 28",47.0957336,37.5458858
Маріуполь,улица 130 Таганрогской дивизии,110,commercial,unknown,,"Маріуполь, улица 130 Таганрогской дивизии, 110",47.1212747,37.6699444
Маріуполь,проспект 1 Мая,53А,commercial,unknown,,"Маріуполь, проспект 1 Мая, 53А",47.097133,37.543367
Маріуполь,бульвар 50 лет Октября,32А,commercial,unknown,,"Маріуполь, бульвар 50 лет Октября, 32А",47.097133,37.543367
Маріуполь,улица Киевская,70,commercial,unknown,,"Маріуполь, улица Киевская, 70",47.097133,37.543367
Маріуполь,бульвар Комсомольский,68А,commercial,unknown,,"Маріуполь, бульвар Комсомольский, 68А",47.097867,37.6497609
Маріуполь,проспект Ленинградский,39,commercial,unknown,,"Маріуполь, проспект Ленинградский, 39",47.1023156,37.6685757
Маріуполь,пересечение улица Лепорского и улица Мерзляка,,commercial,unknown,,"Маріуполь, пересечение улица Лепорского и улица Мерзляка",47.1117891,37.6169163
Маріуполь,проспект Победы,17,commercial,unknown,,"Маріуполь, проспект Победы, 17",47.10784770000001,37.630812
Маріуполь,проспект Победы,51/32,commercial,unknown,,"Маріуполь, проспект Победы, 51/32",47.10681,37.639857
Маріуполь,улица Приморская,1,commercial,unknown,,"Маріуполь, улица Приморская, 1",47.0980792,37.6584568
Маріуполь,улица Таганрогская,255,commercial,unknown,,"Маріуполь, улица Таганрогская, 255",47.1294871,37.674246
Маріуполь,проспект Тульский,24,commercial,unknown,,"Маріуполь, проспект Тульский, 24",47.10157,37.6589453
Маріуполь,проспект Тульский,24,commercial,unknown,,"Маріуполь, проспект Тульский, 24",47.10157,37.6589453
Маріуполь,проспект Тульский,39/7,commercial,unknown,,"Маріуполь, проспект Тульский, 39/7",47.1046298,37.6596616
Маріуполь,"проспект Металлургов, 94, пом. 136/1",,commercial,unknown,,"Маріуполь, проспект Металлургов, 94, пом. 136/1",47.1113434,37.55648240000001
Маріуполь,улица Фонтанная,79,commercial,unknown,,"Маріуполь, улица Фонтанная, 79",47.1016322,37.5523399
Маріуполь,улица Артема,89,commercial,unknown,,"Маріуполь, улица Артема, 89",47.097133,37.543367
Маріуполь,улица Артема,89,commercial,unknown,,"Маріуполь, улица Артема, 89",47.097133,37.543367
Маріуполь,улица Артема,94А,commercial,unknown,,"Маріуполь, улица Артема, 94А",47.097133,37.543367
Маріуполь,улица Георгиевская,6,commercial,unknown,,"Маріуполь, улица Георгиевская, 6",47.0927022,37.5591745
Маріуполь,проспект Строителей,171А,commercial,unknown,,"Маріуполь, проспект Строителей, 171А",47.1185446,37.529967
Маріуполь,проспект Карпова,1,commercial,unknown,,"Маріуполь, проспект Карпова, 1",47.1493872,37.5501514
Маріуполь,проспект Карпова,1,commercial,unknown,,"Маріуполь, проспект Карпова, 1",47.1493872,37.5501514
Маріуполь,проспект 1 Мая,52,commercial,unknown,,"Маріуполь, проспект 1 Мая, 52",47.097133,37.543367
Маріуполь,бульвар 50 лет Октября,9/28,commercial,unknown,,"Маріуполь, бульвар 50 лет Октября, 9/28",47.102548,37.6371685
Маріуполь,бульвар 50 лет Октября,9/28,commercial,unknown,,"Маріуполь, бульвар 50 лет Октября, 9/28",47.102548,37.6371685
Маріуполь,бульвар 50 лет Октября,11,commercial,unknown,,"Маріуполь, бульвар 50 лет Октября, 11",47.1034474,37.6372948
Маріуполь,бульвар 50 лет Октября,24/26,commercial,unknown,,"Маріуполь, бульвар 50 лет Октября, 24/26",47.103252,37.63503000000001
Маріуполь,бульвар 50 лет Октября,30/17,commercial,unknown,,"Маріуполь, бульвар 50 лет Октября, 30/17",47.1041613,37.6357504
Маріуполь,бульвар 50 лет Октября,38,commercial,unknown,,"Маріуполь, бульвар 50 лет Октября, 38",47.1061647,37.6361382
Маріуполь,бульвар 50 лет Октября,38,commercial,unknown,,"Маріуполь, бульвар 50 лет Октября, 38",47.1061647,37.6361382
Маріуполь,бульвар 50 лет Октября,38,commercial,unknown,,"Маріуполь, бульвар 50 лет Октября, 38",47.1061647,37.6361382
Маріуполь,бульвар 50 лет Октября,38,commercial,unknown,,"Маріуполь, бульвар 50 лет Октября, 38",47.1061647,37.6361382
Маріуполь,улица Воинов-освободителей,2/3,commercial,unknown,,"Маріуполь, улица Воинов-освободителей, 2/3",47.100075,37.6373076
Маріуполь,улица Воинов-освободителей,88,commercial,unknown,,"Маріуполь, улица Воинов-освободителей, 88",47.09907279999999,37.6536563
Маріуполь,улица Волгодонская,2,commercial,unknown,,"Маріуполь, улица Волгодонская, 2",47.1051661,37.6326134
Маріуполь,улица Волнистая,49,commercial,unknown,,"Маріуполь, улица Волнистая, 49",47.11462720000001,37.6410621
Маріуполь,улица Киевская,60,commercial,unknown,,"Маріуполь, улица Киевская, 60",47.097133,37.543367
Маріуполь,улица Лазо,50А,commercial,unknown,,"Маріуполь, улица Лазо, 50А",47.1169082,37.6429397
Маріуполь,проспект Ленинградский,43,commercial,unknown,,"Маріуполь, проспект Ленинградский, 43",47.1038063,37.6687304
Маріуполь,улица Олимпийская,18,commercial,unknown,,"Маріуполь, улица Олимпийская, 18",47.1070114,37.6627429
Маріуполь,улица Московская,15,commercial,unknown,,"Маріуполь, улица Московская, 15",47.097133,37.543367
Маріуполь,улица Пашковского,5,commercial,unknown,,"Маріуполь, улица Пашковского, 5",47.109036,37.6318638
Маріуполь,улица Пашковского,16,commercial,unknown,,"Маріуполь, улица Пашковского, 16",47.1092897,37.6383133
Маріуполь,улица Пашковского,18,commercial,unknown,,"Маріуполь, улица Пашковского, 18",47.10923409999999,37.6389861
Маріуполь,проспект Победы,25,commercial,unknown,,"Маріуполь, проспект Победы, 25",47.10593189999999,37.6310534
Маріуполь,проспект Победы,47,commercial,unknown,,"Маріуполь, проспект Победы, 47",47.1067073,37.6391126
Маріуполь,проспект Победы,117,commercial,unknown,,"Маріуполь, проспект Победы, 117",47.1045697,37.6687943
Маріуполь,проспект Победы,117,commercial,unknown,,"Маріуполь, проспект Победы, 117",47.1045697,37.6687943
Маріуполь,проспект Тульский,18,commercial,unknown,,"Маріуполь, проспект Тульский, 18",47.10189,37.6596613
Маріуполь,проспект Тульский,39/7,commercial,unknown,,"Маріуполь, проспект Тульский, 39/7",47.1046298,37.6596616
Маріуполь,проспект Тульский,39/7,commercial,unknown,,"Маріуполь, проспект Тульский, 39/7",47.1046298,37.6596616
Маріуполь,переулок Киевский,4,commercial,unknown,,"Маріуполь, переулок Киевский, 4",47.109934,37.6430668
Маріуполь,проспект Победы,20,commercial,unknown,,"Маріуполь, проспект Победы, 20",47.1079977,37.6317216
Маріуполь,улица Курчатова,33,commercial,unknown,,"Маріуполь, улица Курчатова, 33",47.1589888,37.6141266
Маріуполь,улица Машиностроительная,80А,commercial,unknown,,"Маріуполь, улица Машиностроительная, 80А",47.16228340000001,37.6140025
Маріуполь,улица Машиностроительная,82А,commercial,unknown,,"Маріуполь, улица Машиностроительная, 82А",47.1627505,37.6137319
Маріуполь,проспект Металлургов,166,commercial,unknown,,"Маріуполь, проспект Металлургов, 166",47.1287102,37.5645773
Маріуполь,улица Набережная,1,commercial,unknown,,"Маріуполь, улица Набережная, 1",47.097133,37.543367
Маріуполь,улица Набережная,1,commercial,unknown,,"Маріуполь, улица Набережная, 1",47.097133,37.543367
Маріуполь,улица Набережная,1,commercial,unknown,,"Маріуполь, улица Набережная, 1",47.097133,37.543367
Маріуполь,улица Набережная,1,commercial,unknown,,"Маріуполь, улица Набережная, 1",47.097133,37.543367
Маріуполь,улица Набережная,1,commercial,unknown,,"Маріуполь, улица Набережная, 1",47.097133,37.543367
Маріуполь,улица Набережная,1,commercial,unknown,,"Маріуполь, улица Набережная, 1",47.097133,37.543367
Маріуполь,улица Набережная,1,commercial,unknown,,"Маріуполь, улица Набережная, 1",47.097133,37.543367
Маріуполь,улица Набережная,1,commercial,unknown,,"Маріуполь, улица Набережная, 1",47.097133,37.543367
Маріуполь,улица Набережная,1,commercial,unknown,,"Маріуполь, улица Набережная, 1",47.097133,37.543367
Маріуполь,"улица Котовского, 7 (Первая слободка)",,commercial,unknown,,"Маріуполь, улица Котовского, 7 (Первая слободка)",47.0907571,37.5645722
Маріуполь,улица Казанцева,29,commercial,unknown,,"Маріуполь, улица Казанцева, 29",47.1061959,37.5465996
Маріуполь,улица Казанцева,120,commercial,unknown,,"Маріуполь, улица Казанцева, 120",47.10383840000001,37.5433507
Маріуполь,улица Куприна,11,commercial,unknown,,"Маріуполь, улица Куприна, 11",47.1024793,37.5125267
Маріуполь,улица Николаевская,89,commercial,unknown,,"Маріуполь, улица Николаевская, 89",47.1004362,37.54745010000001
Маріуполь,улица Урицкого,69,commercial,unknown,,"Маріуполь, улица Урицкого, 69",47.1225451,37.5211382
Маріуполь,бульвар Шевченко,289,commercial,unknown,,"Маріуполь, бульвар Шевченко, 289",47.1170812,37.5233327
Маріуполь,улица 130 Таганрогской дивизии,7,commercial,unknown,,"Маріуполь, улица 130 Таганрогской дивизии, 7",47.1085771,37.6691414
Маріуполь,улица Варганова,15,commercial,unknown,,"Маріуполь, улица Варганова, 15",47.0990603,37.5409144
Маріуполь,проспект Металлургов,188,commercial,unknown,,"Маріуполь, проспект Металлургов, 188",47.13306290000001,37.5659426
Маріуполь,проспект Строителей,179,commercial,unknown,,"Маріуполь, проспект Строителей, 179",47.1217283,37.5279496
Маріуполь,улица Урицкого,116А,commercial,unknown,,"Маріуполь, улица Урицкого, 116А",47.122003,37.5138555
Маріуполь,переулок Рижский,27,commercial,unknown,,"Маріуполь, переулок Рижский, 27",47.1151638,37.6744515
Маріуполь,улица Виноградная,60А,commercial,unknown,,"Маріуполь, улица Виноградная, 60А",47.09442929999999,37.6350115
Маріуполь,улица Киевская,69,commercial,unknown,,"Маріуполь, улица Киевская, 69",47.097133,37.543367
Маріуполь,улица Киевская,69,commercial,unknown,,"Маріуполь, улица Киевская, 69",47.097133,37.543367
Маріуполь,улица Варшавская,24,commercial,unknown,,"Маріуполь, улица Варшавская, 24",47.1722913,37.57761199999999
Маріуполь,улица Варшавская,24,commercial,unknown,,"Маріуполь, улица Варшавская, 24",47.1722913,37.57761199999999
Маріуполь,улица Варшавская,24,commercial,unknown,,"Маріуполь, улица Варшавская, 24",47.1722913,37.57761199999999
Маріуполь,улица Гастелло,28,commercial,unknown,,"Маріуполь, улица Гастелло, 28",47.1298518,37.5536166
Маріуполь,улица Новая жизнь,16,commercial,unknown,,"Маріуполь, улица Новая жизнь, 16",47.1325999,37.5773116
Маріуполь,улица Новая жизнь,16,commercial,unknown,,"Маріуполь, улица Новая жизнь, 16",47.1325999,37.5773116
Маріуполь,улица Шота Руставели,70,commercial,unknown,,"Маріуполь, улица Шота Руставели, 70",47.11472149999999,37.5367158
Маріуполь,улица Шота Руставели,70,commercial,unknown,,"Маріуполь, улица Шота Руставели, 70",47.11472149999999,37.5367158
Маріуполь,проспект Ленина,19А,commercial,unknown,,"Маріуполь, проспект Ленина, 19А",47.097133,37.543367
Маріуполь,проспект Ленина,27,commercial,unknown,,"Маріуполь, проспект Ленина, 27",47.097133,37.543367
Маріуполь,проспект Ленина,29,commercial,unknown,,"Маріуполь, проспект Ленина, 29",47.097133,37.543367
Маріуполь,проспект Ленина,33,commercial,unknown,,"Маріуполь, проспект Ленина, 33",47.097133,37.543367
Маріуполь,проспект Ленина,35,commercial,unknown,,"Маріуполь, проспект Ленина, 35",47.097133,37.543367
Маріуполь,проспект Ленина,41,commercial,unknown,,"Маріуполь, проспект Ленина, 41",47.097133,37.543367
Маріуполь,проспект Ильича,2,commercial,unknown,,"Маріуполь, проспект Ильича, 2",47.134632,37.6009643
Маріуполь,проспект Ильича,59,commercial,unknown,,"Маріуполь, проспект Ильича, 59",47.1369248,37.5899463
Маріуполь,улица Краснофлотская,119,commercial,unknown,,"Маріуполь, улица Краснофлотская, 119",47.097133,37.543367
Маріуполь,улица Краснофлотская,119,commercial,unknown,,"Маріуполь, улица Краснофлотская, 119",47.097133,37.543367
Маріуполь,улица Краснофлотская,119А,commercial,unknown,,"Маріуполь, улица Краснофлотская, 119А",47.097133,37.543367
Маріуполь,улица Трудовая,21,commercial,unknown,,"Маріуполь, улица Трудовая, 21",47.1204995,37.6510345
Маріуполь,улица Трудовая,21,commercial,unknown,,"Маріуполь, улица Трудовая, 21",47.1204995,37.6510345
Маріуполь,проспект Тульский,35,commercial,unknown,,"Маріуполь, проспект Тульский, 35",47.1043676,37.6596762
Маріуполь,переулок Рижский,40,commercial,unknown,,"Маріуполь, переулок Рижский, 40",47.115783,37.67408530000001
Маріуполь,улица Волгодонская,2,commercial,unknown,,"Маріуполь, улица Волгодонская, 2",47.1051661,37.6326134
Маріуполь,улица Апатова,70,commercial,unknown,,"Маріуполь, улица Апатова, 70",47.0918691,37.5526881
Маріуполь,улица Греческая,206А,commercial,unknown,,"Маріуполь, улица Греческая, 206А",47.1133367,37.5748213
Маріуполь,улица Леваневского,58,commercial,unknown,,"Маріуполь, улица Леваневского, 58",47.1007562,37.5310489
Маріуполь,проспект Металлургов,133Б,commercial,unknown,,"Маріуполь, проспект Металлургов, 133Б",47.1127805,37.5598466
Маріуполь,проспект Строителей,134,commercial,unknown,,"Маріуполь, проспект Строителей, 134",47.1107561,37.5242037
Маріуполь,проспект Строителей,136А,commercial,unknown,,"Маріуполь, проспект Строителей, 136А",47.1122063,37.5235953
Маріуполь,"улица Энгельса, 60, офис 104",,commercial,офис,104,"Маріуполь, улица Энгельса, 60, офис 104",47.101446,37.5496564
Маріуполь,"улица Энгельса, 60, офис 308",,commercial,офис,308,"Маріуполь, улица Энгельса, 60, офис 308",47.101446,37.5496564
Маріуполь,26 квартал,1,commercial,unknown,,"Маріуполь, 26 квартал, 1",47.097133,37.543367
Маріуполь,26 квартал,1,commercial,unknown,,"Маріуполь, 26 квартал, 1",47.097133,37.543367
Маріуполь,26 квартал,1,commercial,unknown,,"Маріуполь, 26 квартал, 1",47.097133,37.543367
Маріуполь,улица Бодрова,2А,commercial,unknown,,"Маріуполь, улица Бодрова, 2А",47.1380545,37.6014889
Маріуполь,проспект Ильича,15А,commercial,unknown,,"Маріуполь, проспект Ильича, 15А",47.13621699999999,37.6004995
Маріуполь,проспект Ильича,135,commercial,unknown,,"Маріуполь, проспект Ильича, 135",47.1398129,37.5701266
Маріуполь,улица Семашко,13,commercial,unknown,,"Маріуполь, улица Семашко, 13",47.1395133,37.5984333
Маріуполь,улица Семашко,15,commercial,unknown,,"Маріуполь, улица Семашко, 15",47.1395496,37.5978372
Маріуполь,улица Киевская,33,commercial,unknown,,"Маріуполь, улица Киевская, 33",47.097133,37.543367
Маріуполь,улица Киевская,33Б,commercial,unknown,,"Маріуполь, улица Киевская, 33Б",47.097133,37.543367
Маріуполь,улица Киевская,45Б,commercial,unknown,,"Маріуполь, улица Киевская, 45Б",47.097133,37.543367
Маріуполь,проспект Маршала Жукова,70,commercial,unknown,,"Маріуполь, проспект Маршала Жукова, 70",47.1225846,37.6924693
Маріуполь,улица Пашковского,43А,commercial,unknown,,"Маріуполь, улица Пашковского, 43А",47.1083142,37.6443465
Маріуполь,проспект Победы,38,commercial,unknown,,"Маріуполь, проспект Победы, 38",47.1075872,37.6386706
Маріуполь,проспект Победы,119,commercial,unknown,,"Маріуполь, проспект Победы, 119",47.1046676,37.6702477
Маріуполь,проспект Победы,119,commercial,unknown,,"Маріуполь, проспект Победы, 119",47.1046676,37.6702477
Маріуполь,проспект Тульский,13А,commercial,unknown,,"Маріуполь, проспект Тульский, 13А",47.1018552,37.6600709
Маріуполь,бульвар Приморский,22,commercial,unknown,,"Маріуполь, бульвар Приморский, 22",47.0711819,37.5189819
Маріуполь,бульвар Приморский,24А,commercial,unknown,,"Маріуполь, бульвар Приморский, 24А",47.0705685,37.5183557
Маріуполь,проспект Строителей,85,commercial,unknown,,"Маріуполь, проспект Строителей, 85",47.0900396,37.5226291
